1 08820U 76039A   03050.82586110  .00000003  00000-0  10000-3 0  9067
2 08820 109.8286 141.4198 0044243 326.4985  33.2950  6.38664569369560
